NORAD_CAT_ID,OBJECT_NAME,OBJECT_TYPE,EPOCH,MEAN_MOTION,ECCENTRICITY,INCLINATION,RA_OF_ASC_NODE,ARG_OF_PERICENTER,MEAN_ANOMALY,BSTAR,MEAN_MOTION_DOT,MEAN_MOTION_DDOT,TLE_LINE0,TLE_LINE1,TLE_LINE2,SEMIMAJOR_AXIS,PERIOD,APOGEE,PERIGEE,DECAYED
49133.0,STARLINK-3077,PAYLOAD,2024-04-21 16:41:27,14.98325286,0.0002307,70.0012,226.6101,266.8894,93.2002,-9.6384e-05,-1.243e-05,0.0,0 STARLINK-3077,1 49133U 21082D   24112.69545891 -.00001243  00000-0 -96384-4 0  9996,2 49133  70.0012 226.6101 0002307 266.8894  93.2002 14.98325286143074,6950.207,96.107,573.676,570.469,0.0
49133.0,STARLINK-3077,PAYLOAD,2024-04-22 10:18:55,14.98333608,0.0003038,70.0005,224.7594,280.194,79.8877,8.4849e-05,9.2e-06,0.0,0 STARLINK-3077,1 49133U 21082D   24113.42981024  .00000920  00000-0  84849-4 0  9992,2 49133  70.0005 224.7594 0003038 280.1940  79.8877 14.98333608143183,6950.182,96.107,574.158,569.935,0.0
49133.0,STARLINK-3077,PAYLOAD,2024-04-22 16:43:26,14.98346739,0.0002964,70.0008,224.0871,275.3189,84.7632,0.00026103,3.024e-05,0.0,0 STARLINK-3077,1 49133U 21082D   24113.69683906  .00003024  00000-0  26103-3 0  9995,2 49133  70.0008 224.0871 0002964 275.3189  84.7632 14.98346739143223,6950.141,96.106,574.066,569.946,0.0
49133.0,STARLINK-3077,PAYLOAD,2024-04-23 11:57:05,14.98323834,0.0003134,70.0024,222.0666,276.4121,83.6681,4.2844e-05,4.18e-06,0.0,0 STARLINK-3077,1 49133U 21082D   24114.49797729  .00000418  00000-0  42844-4 0  9998,2 49133  70.0024 222.0666 0003134 276.4121  83.6681 14.98323834143345,6950.212,96.107,574.255,569.899,0.0
49133.0,STARLINK-3077,PAYLOAD,2024-04-23 13:33:13,14.98324649,0.0003026,70.0026,221.8984,276.9351,83.1464,6.695e-05,7.06e-06,0.0,0 STARLINK-3077,1 49133U 21082D   24114.56473716  .00000706  00000-0  66950-4 0  9997,2 49133  70.0026 221.8984 0003026 276.9351  83.1464 14.98324649143357,6950.209,96.107,574.178,569.971,0.0
49133.0,STARLINK-3077,PAYLOAD,2024-04-23 16:45:29,14.98332174,0.0003029,70.0026,221.5622,276.0911,83.9902,0.00020308,2.331e-05,0.0,0 STARLINK-3077,1 49133U 21082D   24114.69825396  .00002331  00000-0  20308-3 0  9998,2 49133  70.0026 221.5622 0003029 276.0911  83.9902 14.98332174143378,6950.186,96.107,574.156,569.946,0.0
49133.0,STARLINK-3077,PAYLOAD,2024-04-24 13:35:13,14.98338254,0.0002773,70.0042,219.3754,270.8726,89.2116,0.00024306,2.809e-05,0.0,0 STARLINK-3077,1 49133U 21082D   24115.56613078  .00002809  00000-0  24306-3 0  9999,2 49133  70.0042 219.3754 0002773 270.8726  89.2116 14.98338254143504,6950.167,96.106,573.96,570.105,0.0
49133.0,STARLINK-3077,PAYLOAD,2024-04-24 16:47:29,14.98343,0.0002561,70.0047,219.0396,273.8879,86.1987,0.00037852,4.428e-05,0.0,0 STARLINK-3077,1 49133U 21082D   24115.69964911  .00004428  00000-0  37852-3 0  9997,2 49133  70.0047 219.0396 0002561 273.8879  86.1987 14.98343000143524,6950.153,96.106,573.798,570.238,0.0
49133.0,STARLINK-3077,PAYLOAD,2024-04-25 13:37:14,14.98332347,0.0002619,70.0046,216.854,238.897,121.1933,-1.6794e-05,-2.93e-06,0.0,0 STARLINK-3077,1 49133U 21082D   24116.56753237 -.00000293  00000-0 -16794-4 0  9992,2 49133  70.0046 216.8540 0002619 238.8970 121.1933 14.98332347143653,6950.186,96.107,573.871,570.23,0.0
49133.0,STARLINK-3077,PAYLOAD,2024-04-25 16:49:30,14.98333636,0.0002693,70.0035,216.5149,258.4264,101.6593,0.00013448,1.512e-05,0.0,0 STARLINK-3077,1 49133U 21082D   24116.70105321  .00001512  00000-0  13448-3 0  9998,2 49133  70.0035 216.5149 0002693 258.4264 101.6593 14.98333636143678,6950.182,96.107,573.918,570.175,0.0
49133.0,STARLINK-3077,PAYLOAD,2024-04-26 05:38:34,14.98348493,0.0002462,70.0032,215.1681,247.0504,113.0395,-0.00061447,-7.42e-05,0.0,0 STARLINK-3077,1 49133U 21082D   24117.23512360 -.00007420  00000-0 -61447-3 0  9990,2 49133  70.0032 215.1681 0002462 247.0504 113.0395 14.98348493143759,6950.136,96.106,573.712,570.29,0.0
49133.0,STARLINK-3077,PAYLOAD,2024-04-26 13:39:15,14.98340665,0.0002668,70.0034,214.3252,260.6861,99.3997,0.00030105,3.502e-05,0.0,0 STARLINK-3077,1 49133U 21082D   24117.56892848  .00003502  00000-0  30105-3 0  9990,2 49133  70.0034 214.3252 0002668 260.6861  99.3997 14.98340665143804,6950.16,96.106,573.879,570.171,0.0
49133.0,STARLINK-3077,PAYLOAD,2024-04-26 16:51:31,14.98345604,0.0002599,70.0039,213.989,262.3467,97.7397,0.0004134,4.845e-05,0.0,0 STARLINK-3077,1 49133U 21082D   24117.70244620  .00004845  00000-0  41340-3 0  9999,2 49133  70.0039 213.9890 0002599 262.3467  97.7397 14.98345604143822,6950.145,96.106,573.816,570.203,0.0
49133.0,STARLINK-3077,PAYLOAD,2024-04-27 05:40:35,14.98342012,0.0002305,70.0047,212.6431,248.0166,112.0749,0.00042064,4.931e-05,0.0,0 STARLINK-3077,1 49133U 21082D   24118.23652618  .00004931  00000-0  42064-3 0  9998,2 49133  70.0047 212.6431 0002305 248.0166 112.0749 14.98342012143901,6950.156,96.106,573.623,570.419,0.0
49133.0,STARLINK-3077,PAYLOAD,2024-04-27 12:05:08,14.98334518,0.0002493,70.0035,211.9686,253.0021,107.0865,0.00032838,3.828e-05,0.0,0 STARLINK-3077,1 49133U 21082D   24118.50356802  .00003828  00000-0  32838-3 0  9996,2 49133  70.0035 211.9686 0002493 253.0021 107.0865 14.98334518143945,6950.179,96.107,573.777,570.311,0.0
49133.0,STARLINK-3077,PAYLOAD,2024-04-27 13:41:16,14.98331978,0.000251,70.0036,211.8006,254.3753,105.7129,0.00033647,3.924e-05,0.0,0 STARLINK-3077,1 49133U 21082D   24118.57032879  .00003924  00000-0  33647-3 0  9994,2 49133  70.0036 211.8006 0002510 254.3753 105.7129 14.98331978143953,6950.187,96.107,573.796,570.307,0.0
49133.0,STARLINK-3077,PAYLOAD,2024-04-27 15:17:24,14.98335119,0.000242,70.0036,211.6323,251.6756,108.414,0.00019338,2.215e-05,0.0,0 STARLINK-3077,1 49133U 21082D   24118.63708659  .00002215  00000-0  19338-3 0  9990,2 49133  70.0036 211.6323 0002420 251.6756 108.4140 14.98335119143961,6950.177,96.107,573.724,570.36,0.0
49133.0,STARLINK-3077,PAYLOAD,2024-04-28 05:42:37,14.98326447,0.000213,70.0047,210.1203,258.5503,101.5417,-6.819e-05,-9.06e-06,0.0,0 STARLINK-3077,1 49133U 21082D   24119.23793272 -.00000906  00000-0 -68190-4 0  9990,2 49133  70.0047 210.1203 0002130 258.5503 101.5417 14.98326447144054,6950.204,96.107,573.549,570.588,0.0
49133.0,STARLINK-3077,PAYLOAD,2024-04-28 12:07:10,14.98321439,0.0002264,70.0024,209.4448,264.4014,95.6887,-7.2107e-05,-9.53e-06,0.0,0 STARLINK-3077,1 49133U 21082D   24119.50498171 -.00000953  00000-0 -72107-4 0  9995,2 49133  70.0024 209.4448 0002264 264.4014  95.6887 14.98321439144096,6950.219,96.108,573.658,570.511,0.0
49133.0,STARLINK-3077,PAYLOAD,2024-04-28 13:43:18,14.98319028,0.0002763,70.0013,209.2756,265.1539,94.9304,-0.00017157,-2.139e-05,0.0,0 STARLINK-3077,1 49133U 21082D   24119.57174411 -.00002139  00000-0 -17157-3 0  9991,2 49133  70.0013 209.2756 0002763 265.1539  94.9304 14.98319028144107,6950.227,96.108,574.012,570.171,0.0
49133.0,STARLINK-3077,PAYLOAD,2024-04-28 15:19:26,14.98318935,0.0002778,70.0013,209.1073,265.3257,94.7584,-0.00016845,-2.102e-05,0.0,0 STARLINK-3077,1 49133U 21082D   24119.63850455 -.00002102  00000-0 -16845-3 0  9990,2 49133  70.0013 209.1073 0002778 265.3257  94.7584 14.98318935144118,6950.227,96.108,574.023,570.161,0.0
49133.0,STARLINK-3077,PAYLOAD,2024-04-29 05:44:38,14.98327747,0.0002927,70.0008,207.592,266.2754,93.807,2.3799e-05,1.91e-06,0.0,0 STARLINK-3077,1 49133U 21082D   24120.23933716  .00000191  00000-0  23799-4 0  9991,2 49133  70.0008 207.5920 0002927 266.2754  93.8070 14.98327747144204,6950.2,96.107,574.099,570.031,0.0
49133.0,STARLINK-3077,PAYLOAD,2024-04-29 13:45:18,14.98333177,0.0002956,70.0016,206.7504,267.6315,92.4506,0.00020991,2.413e-05,0.0,0 STARLINK-3077,1 49133U 21082D   24120.57313424  .00002413  00000-0  20991-3 0  9995,2 49133  70.0016 206.7504 0002956 267.6315  92.4506 14.98333177144250,6950.183,96.107,574.103,569.994,0.0
49133.0,STARLINK-3077,PAYLOAD,2024-04-29 15:21:26,14.9833492,0.0002953,70.0017,206.5822,267.6467,92.4354,0.00026462,3.066e-05,0.0,0 STARLINK-3077,1 49133U 21082D   24120.63989391  .00003066  00000-0  26462-3 0  9998,2 49133  70.0017 206.5822 0002953 267.6467  92.4354 14.98334920144266,6950.178,96.107,574.095,569.99,0.0
49133.0,STARLINK-3077,PAYLOAD,2024-04-30 05:46:39,14.98337939,0.0003063,70.0011,205.0663,270.125,89.9558,0.00063915,7.543e-05,0.0,0 STARLINK-3077,1 49133U 21082D   24121.24073573  .00007543  00000-0  63915-3 0  9990,2 49133  70.0011 205.0663 0003063 270.1250  89.9558 14.98337939144359,6950.168,96.106,574.162,569.905,0.0
49133.0,STARLINK-3077,PAYLOAD,2024-04-30 13:47:19,14.98349053,0.0003161,70.0014,204.2251,271.3372,88.7425,0.00063639,7.512e-05,0.0,0 STARLINK-3077,1 49133U 21082D   24121.57453058  .00007512  00000-0  63639-3 0  9995,2 49133  70.0014 204.2251 0003161 271.3372  88.7425 14.98349053144409,6950.134,96.106,574.196,569.802,0.0
49133.0,STARLINK-3077,PAYLOAD,2024-04-30 15:23:27,14.98350363,0.0003162,70.0013,204.0568,271.3462,88.7334,0.0006627,7.827e-05,0.0,0 STARLINK-3077,1 49133U 21082D   24121.64128971  .00007827  00000-0  66270-3 0  9999,2 49133  70.0013 204.0568 0003162 271.3462  88.7334 14.98350363144414,6950.13,96.106,574.193,569.797,0.0
49133.0,STARLINK-3077,PAYLOAD,2024-05-01 12:13:12,14.98337654,0.0003018,70.0016,201.8689,271.4792,88.6022,7.8017e-05,8.38e-06,0.0,0 STARLINK-3077,1 49133U 21082D   24122.50917054  .00000838  00000-0  78017-4 0  9991,2 49133  70.0016 201.8689 0003018 271.4792  88.6022 14.98337654144548,6950.169,96.107,574.132,569.937,0.0
49133.0,STARLINK-3077,PAYLOAD,2024-05-02 12:15:13,14.98334151,0.0002849,70.0008,199.3442,271.7242,88.3591,8.4358e-06,8e-08,0.0,0 STARLINK-3077,1 49133U 21082D   24123.51057208  .00000008  00000-0  84358-5 0  9994,2 49133  70.0008 199.3442 0002849 271.7242  88.3591 14.98334151144694,6950.18,96.107,574.025,570.065,0.0
49133.0,STARLINK-3077,PAYLOAD,2024-05-02 13:51:21,14.98335203,0.0002847,70.0008,199.1759,271.8279,88.2554,1.5439e-05,9.1e-07,0.0,0 STARLINK-3077,1 49133U 21082D   24123.57733080  .00000091  00000-0  15439-4 0  9994,2 49133  70.0008 199.1759 0002847 271.8279  88.2554 14.98335203144701,6950.177,96.107,574.021,570.063,0.0
